{"fetched_at":"2026-03-29T16:36:15Z","count":15609,"tles":[{"name":"KOMPSAT-7","line1":"1 66820U 25279A   26083.13262527  .00003206  00000+0  25230-3 0  9999","line2":"2 66820  97.6797  32.5556 0008316 294.9939  65.0421 15.01513834 16868","category":"Other"}]}